{
  "links" : {
    "next" : "https://api.nasa.gov/neo/rest/v1/feed?start_date=2014-03-16&end_date=2014-03-16&detailed=true&api_key=t0TVs3DtDT2H8Oy2Zy8m2eVrNsAVKAexjcZXUckd",
    "prev" : "https://api.nasa.gov/neo/rest/v1/feed?start_date=2014-03-14&end_date=2014-03-14&detailed=true&api_key=t0TVs3DtDT2H8Oy2Zy8m2eVrNsAVKAexjcZXUckd",
    "self" : "https://api.nasa.gov/neo/rest/v1/feed?start_date=2014-03-15&end_date=2014-03-15&detailed=true&api_key=t0TVs3DtDT2H8Oy2Zy8m2eVrNsAVKAexjcZXUckd"
  },
  "element_count" : 14,
  "near_earth_objects" : {
    "2014-03-15" : [ {
      "links" : {
        "self" : "https://api.nasa.gov/neo/rest/v1/neo/3666783?api_key=t0TVs3DtDT2H8Oy2Zy8m2eVrNsAVKAexjcZXUckd"
      },
      "neo_reference_id" : "3666783",
      "name" : "(2014 FO47)",
      "nasa_jpl_url" : "http://ssd.jpl.nasa.gov/sbdb.cgi?sstr=3666783",
      "absolute_magnitude_h" : 20.3,
      "estimated_diameter" : {
        "kilometers" : {
          "estimated_diameter_min" : 0.2315021222,
          "estimated_diameter_max" : 0.5176544822
        },
        "meters" : {
          "estimated_diameter_min" : 231.5021222103,
          "estimated_diameter_max" : 517.6544821978
        },
        "miles" : {
          "estimated_diameter_min" : 0.1438487052,
          "estimated_diameter_max" : 0.3216554833
        },
        "feet" : {
          "estimated_diameter_min" : 759.5214226325,
          "estimated_diameter_max" : 1698.3415313737
        }
      },
      "is_potentially_hazardous_asteroid" : true,
      "close_approach_data" : [ {
        "close_approach_date" : "2014-03-15",
        "epoch_date_close_approach" : 1394866800000,
        "relative_velocity" : {
          "kilometers_per_second" : "10.6005475598",
          "kilometers_per_hour" : "38161.9712153131",
          "miles_per_hour" : "23712.3648365372"
        },
        "miss_distance" : {
          "astronomical" : "0.1519805741",
          "lunar" : "59.1204452515",
          "kilometers" : "22735972",
          "miles" : "14127478"
        },
        "orbiting_body" : "Earth"
      } ],
      "orbital_data" : {
        "orbit_id" : "13",
        "orbit_determination_date" : "2017-04-06 08:41:49",
        "orbit_uncertainty" : "2",
        "minimum_orbit_intersection" : ".0449381",
        "jupiter_tisserand_invariant" : "7.609",
        "epoch_osculation" : "2458000.5",
        "eccentricity" : ".2710734108752346",
        "semi_major_axis" : ".7521531361361501",
        "inclination" : "19.1976308267857",
        "ascending_node_longitude" : "358.6587800949906",
        "orbital_period" : "238.2636732212871",
        "perihelion_distance" : ".5482644200232192",
        "perihelion_argument" : "347.4623459991788",
        "aphelion_distance" : ".956041852249081",
        "perihelion_time" : "2458042.556090055992",
        "mean_anomaly" : "296.4561445080394",
        "mean_motion" : "1.510931125726625",
        "equinox" : "J2000"
      }
    }, {
      "links" : {
        "self" : "https://api.nasa.gov/neo/rest/v1/neo/3674830?api_key=t0TVs3DtDT2H8Oy2Zy8m2eVrNsAVKAexjcZXUckd"
      },
      "neo_reference_id" : "3674830",
      "name" : "(2014 MS67)",
      "nasa_jpl_url" : "http://ssd.jpl.nasa.gov/sbdb.cgi?sstr=3674830",
      "absolute_magnitude_h" : 21.2,
      "estimated_diameter" : {
        "kilometers" : {
          "estimated_diameter_min" : 0.1529519353,
          "estimated_diameter_max" : 0.3420109247
        },
        "meters" : {
          "estimated_diameter_min" : 152.9519353442,
          "estimated_diameter_max" : 342.0109247198
        },
        "miles" : {
          "estimated_diameter_min" : 0.095039897,
          "estimated_diameter_max" : 0.2125156703
        },
        "feet" : {
          "estimated_diameter_min" : 501.8108275547,
          "estimated_diameter_max" : 1122.0831222578
        }
      },
      "is_potentially_hazardous_asteroid" : false,
      "close_approach_data" : [ {
        "close_approach_date" : "2014-03-15",
        "epoch_date_close_approach" : 1394866800000,
        "relative_velocity" : {
          "kilometers_per_second" : "11.496599623",
          "kilometers_per_hour" : "41387.7586428119",
          "miles_per_hour" : "25716.7436966961"
        },
        "miss_distance" : {
          "astronomical" : "0.4492676301",
          "lunar" : "174.7651062012",
          "kilometers" : "67209480",
          "miles" : "41762036"
        },
        "orbiting_body" : "Earth"
      } ],
      "orbital_data" : {
        "orbit_id" : "14",
        "orbit_determination_date" : "2017-04-06 08:39:47",
        "orbit_uncertainty" : "1",
        "minimum_orbit_intersection" : ".12041",
        "jupiter_tisserand_invariant" : "5.824",
        "epoch_osculation" : "2458000.5",
        "eccentricity" : ".4961634887571488",
        "semi_major_axis" : "1.021026548948201",
        "inclination" : "18.79734332680071",
        "ascending_node_longitude" : "253.7394028658319",
        "orbital_period" : "376.8373830279517",
        "perihelion_distance" : ".5144304543083896",
        "perihelion_argument" : "217.3144726214741",
        "aphelion_distance" : "1.527622643588012",
        "perihelion_time" : "2457831.971780663112",
        "mean_anomaly" : "160.9982493609965",
        "mean_motion" : ".9553192337430524",
        "equinox" : "J2000"
      }
    }, {
      "links" : {
        "self" : "https://api.nasa.gov/neo/rest/v1/neo/3691155?api_key=t0TVs3DtDT2H8Oy2Zy8m2eVrNsAVKAexjcZXUckd"
      },
      "neo_reference_id" : "3691155",
      "name" : "(2014 SS261)",
      "nasa_jpl_url" : "http://ssd.jpl.nasa.gov/sbdb.cgi?sstr=3691155",
      "absolute_magnitude_h" : 26.3,
      "estimated_diameter" : {
        "kilometers" : {
          "estimated_diameter_min" : 0.0146067964,
          "estimated_diameter_max" : 0.0326617897
        },
        "meters" : {
          "estimated_diameter_min" : 14.6067964271,
          "estimated_diameter_max" : 32.6617897446
        },
        "miles" : {
          "estimated_diameter_min" : 0.0090762397,
          "estimated_diameter_max" : 0.020295089
        },
        "feet" : {
          "estimated_diameter_min" : 47.92256199,
          "estimated_diameter_max" : 107.1581062656
        }
      },
      "is_potentially_hazardous_asteroid" : false,
      "close_approach_data" : [ {
        "close_approach_date" : "2014-03-15",
        "epoch_date_close_approach" : 1394866800000,
        "relative_velocity" : {
          "kilometers_per_second" : "6.8409883335",
          "kilometers_per_hour" : "24627.5580006017",
          "miles_per_hour" : "15302.6068032072"
        },
        "miss_distance" : {
          "astronomical" : "0.137115464",
          "lunar" : "53.3379135132",
          "kilometers" : "20512182",
          "miles" : "12745679"
        },
        "orbiting_body" : "Earth"
      } ],
      "orbital_data" : {
        "orbit_id" : "8",
        "orbit_determination_date" : "2017-04-06 08:38:23",
        "orbit_uncertainty" : "3",
        "minimum_orbit_intersection" : ".0157549",
        "jupiter_tisserand_invariant" : "6.273",
        "epoch_osculation" : "2458000.5",
        "eccentricity" : ".1204203551250059",
        "semi_major_axis" : ".9571282557880574",
        "inclination" : "10.88622249596574",
        "ascending_node_longitude" : "3.209010893532164",
        "orbital_period" : "342.0216777057162",
        "perihelion_distance" : ".841870531325882",
        "perihelion_argument" : "128.5390477131562",
        "aphelion_distance" : "1.072385980250233",
        "perihelion_time" : "2458064.534261522576",
        "mean_anomaly" : "292.5997863563426",
        "mean_motion" : "1.052564862013667",
        "equinox" : "J2000"
      }
    } ]
  }
}